UNKNOWN                 
1 89251U          25321.39532579  .00011790  00000+0  68112-2 0  9998
2 89251  62.4794  36.5355 2838396  98.3714 294.4729  9.24175088370840
UNKNOWN                 
1 89261U          25320.26776222  .00001949  00000+0  59352-3 0  9991
2 89261  98.1540 315.8218 0011711 237.3570 122.6491 14.43041138529999
UNKNOWN                 
1 89304U          25320.70258964  .00011173  00000+0  14620-1 0  9993
2 89304  84.3699 110.8761 2844022  19.3098 357.0268  9.02627595436055
UNKNOWN                 
1 89349U          25317.58421450  .00000604  00000+0  20897-2 0  9997
2 89349  90.2471   6.7007 0028328 345.7438  14.2880 12.96229604474970
UNKNOWN                 
1 89379U          25321.52660505  .00006174  00000+0  79609-2 0  9998
2 89379 100.4848 334.9277 0044744 190.6345 169.3851 13.62440528577343
UNKNOWN                 
1 89395U          25317.36080865  .00000350  00000+0  44311-2 0  9990
2 89395 102.3610 287.2462 0220207 174.5270 350.2300 12.01508003521213
UNKNOWN                 
1 89403U          25317.12728126  .00000952  00000+0  31952-2 0  9998
2 89403  90.2498   5.1365 0025575 293.6295  93.0522 12.98710749473988
UNKNOWN                 
1 89484U          25319.51596725  .00052066  00000+0  42693-1 0  9996
2 89484  84.1230 162.4918 2857415  62.4901 323.7030  9.12254512352951
UNKNOWN                 
1 89493U          25320.44137456  .00004433  00000+0  21918-2 0  9995
2 89493  99.0291  28.9532 0082973 115.3528 245.6267 14.16070694460222
UNKNOWN                 
1 89494U          25320.63580439  .00004491  00000+0  22221-2 0  9992
2 89494  99.0289  29.0390 0083550 114.9165 246.0720 14.16002789460104
